OBJECT C                
1 57582U 23117C   25199.20890737  .00005828  00000+0  22616-3 0  9995
2 57582  97.4432 274.0051 0008253 357.9284   2.1919 15.26464506107406
